{"type": "FeatureCollection", "features": [ {"type": "Feature", "properties": {"norad_id": 33153, "name": "INTELSAT 25 (IS-25)", "group": "intelsat", "lat": 1.9305116536479492, "lon": -156.99030160665097, "alt_km": 35778.70819181446, "timestamp": "2025-12-21T09:37:22.316086+00:00", "meta": {"OBJECT_NAME": "INTELSAT 25 (IS-25)", "OBJECT_ID": "2008-034A", "EPOCH": "2025-12-21T02:46:31.544832", "MEAN_MOTION": 1.00269849, "ECCENTRICITY": 0.0004814, "INCLINATION": 2.248, "RA_OF_ASC_NODE": 82.5599, "ARG_OF_PERICENTER": 188.3168, "MEAN_ANOMALY": 189.1788, "EPHEMERIS_TYPE": 0, "CLASSIFICATION_TYPE": "U", "NORAD_CAT_ID": 33153, "ELEMENT_SET_NO": 999, "REV_AT_EPOCH": 6391, "BSTAR": 0, "MEAN_MOTION_DOT": -2.03e-06, "MEAN_MOTION_DDOT": 0}, "tle": {"line1": "1 33153U 08034A   25355.11564288 -.00000203  00000+0  00000+0 0  9999", "line2": "2 33153   2.2480  82.5599 0004814 188.3168 189.1788  1.00269849 63913"}}, "geometry": {"type": "Point", "coordinates": [-156.99030160665097, 1.9305116536479492]}}, {"type": "Feature", "properties": {"norad_id": 33376, "name": "GALAXY 19 (G-19)", "group": "intelsat", "lat": 0.011251290745378261, "lon": 137.53485771253747, "alt_km": 35794.19503797761, "timestamp": "2025-12-21T09:37:22.316098+00:00", "meta": {"OBJECT_NAME": "GALAXY 19 (G-19)", "OBJECT_ID": "2008-045A", "EPOCH": "2025-12-21T04:16:38.932032", "MEAN_MOTION": 1.00271333, "ECCENTRICITY": 0.000253, "INCLINATION": 0.0166, "RA_OF_ASC_NODE": 317.4489, "ARG_OF_PERICENTER": 318.2246, "MEAN_ANOMALY": 141.4895, "EPHEMERIS_TYPE": 0, "CLASSIFICATION_TYPE": "U", "NORAD_CAT_ID": 33376, "ELEMENT_SET_NO": 999, "REV_AT_EPOCH": 6311, "BSTAR": 0, "MEAN_MOTION_DOT": -1.16e-06, "MEAN_MOTION_DDOT": 0}, "tle": {"line1": "1 33376U 08045A   25355.17822838 -.00000116  00000+0  00000+0 0  9995", "line2": "2 33376   0.0166 317.4489 0002530 318.2246 141.4895  1.00271333 63112"}}, "geometry": {"type": "Point", "coordinates": [137.53485771253747, 0.011251290745378261]}}, {"type": "Feature", "properties": {"norad_id": 35493, "name": "FM-5", "group": "intelsat", "lat": -0.0030116254477372153, "lon": 148.41623434481508, "alt_km": 35781.540029550444, "timestamp": "2025-12-21T09:37:22.316110+00:00", "meta": {"OBJECT_NAME": "FM-5", "OBJECT_ID": "2009-034A", "EPOCH": "2025-12-20T21:22:50.190816", "MEAN_MOTION": 1.00271574, "ECCENTRICITY": 0.0001114, "INCLINATION": 0.0228, "RA_OF_ASC_NODE": 291.0132, "ARG_OF_PERICENTER": 225.4052, "MEAN_ANOMALY": 167.8719, "EPHEMERIS_TYPE": 0, "CLASSIFICATION_TYPE": "U", "NORAD_CAT_ID": 35493, "ELEMENT_SET_NO": 999, "REV_AT_EPOCH": 4485, "BSTAR": 0, "MEAN_MOTION_DOT": -1.77e-06, "MEAN_MOTION_DDOT": 0}, "tle": {"line1": "1 35493U 09034A   25354.89085869 -.00000177  00000+0  00000+0 0  9996", "line2": "2 35493   0.0228 291.0132 0001114 225.4052 167.8719  1.00271574 44850"}}, "geometry": {"type": "Point", "coordinates": [148.41623434481508, -0.0030116254477372153]}}, {"type": "Feature", "properties": {"norad_id": 36097, "name": "INTELSAT 14 (IS-14)", "group": "intelsat", "lat": -0.0015788518853760173, "lon": -170.4662073336693, "alt_km": 35786.77779133273, "timestamp": "2025-12-21T09:37:22.316121+00:00", "meta": {"OBJECT_NAME": "INTELSAT 14 (IS-14)", "OBJECT_ID": "2009-064A", "EPOCH": "2025-12-21T02:42:46.903104", "MEAN_MOTION": 1.00270657, "ECCENTRICITY": 0.000247, "INCLINATION": 0.0104, "RA_OF_ASC_NODE": 12.0251, "ARG_OF_PERICENTER": 269.5319, "MEAN_ANOMALY": 164.0836, "EPHEMERIS_TYPE": 0, "CLASSIFICATION_TYPE": "U", "NORAD_CAT_ID": 36097, "ELEMENT_SET_NO": 999, "REV_AT_EPOCH": 5882, "BSTAR": 0, "MEAN_MOTION_DOT": -2.5e-06, "MEAN_MOTION_DDOT": 0}, "tle": {"line1": "1 36097U 09064A   25355.11304286 -.00000250  00000+0  00000+0 0  9995", "line2": "2 36097   0.0104  12.0251 0002470 269.5319 164.0836  1.00270657 58820"}}, "geometry": {"type": "Point", "coordinates": [-170.4662073336693, -0.0015788518853760173]}}, {"type": "Feature", "properties": {"norad_id": 36106, "name": "INTELSAT 15 (IS-15)", "group": "intelsat", "lat": -0.021073985604414595, "lon": -40.26692016472102, "alt_km": 35778.92962780737, "timestamp": "2025-12-21T09:37:22.316133+00:00", "meta": {"OBJECT_NAME": "INTELSAT 15 (IS-15)", "OBJECT_ID": "2009-067A", "EPOCH": "2025-12-20T23:54:28.167840", "MEAN_MOTION": 1.00271811, "ECCENTRICITY": 0.0002162, "INCLINATION": 0.0161, "RA_OF_ASC_NODE": 343.3578, "ARG_OF_PERICENTER": 298.0159, "MEAN_ANOMALY": 252.2279, "EPHEMERIS_TYPE": 0, "CLASSIFICATION_TYPE": "U", "NORAD_CAT_ID": 36106, "ELEMENT_SET_NO": 999, "REV_AT_EPOCH": 3944, "BSTAR": 0, "MEAN_MOTION_DOT": -1.62e-06, "MEAN_MOTION_DDOT": 0}, "tle": {"line1": "1 36106U 09067A   25354.99615935 -.00000162  00000+0  00000+0 0  9992", "line2": "2 36106   0.0161 343.3578 0002162 298.0159 252.2279  1.00271811 39444"}}, "geometry": {"type": "Point", "coordinates": [-40.26692016472102, -0.021073985604414595]}}, {"type": "Feature", "properties": {"norad_id": 36131, "name": "DIRECTV 12", "group": "intelsat", "lat": 0.013390113267321828, "lon": 131.84284792410082, "alt_km": 35787.44571741825, "timestamp": "2025-12-21T09:37:22.316145+00:00", "meta": {"OBJECT_NAME": "DIRECTV 12", "OBJECT_ID": "2009-075A", "EPOCH": "2025-12-20T21:18:05.647104", "MEAN_MOTION": 1.00270531, "ECCENTRICITY": 3.37e-05, "INCLINATION": 0.0166, "RA_OF_ASC_NODE": 99.1337, "ARG_OF_PERICENTER": 257.3135, "MEAN_ANOMALY": 310.0782, "EPHEMERIS_TYPE": 0, "CLASSIFICATION_TYPE": "U", "NORAD_CAT_ID": 36131, "ELEMENT_SET_NO": 999, "REV_AT_EPOCH": 4476, "BSTAR": 0, "MEAN_MOTION_DOT": -8e-07, "MEAN_MOTION_DDOT": 0}, "tle": {"line1": "1 36131U 09075A   25354.88756536 -.00000080  00000+0  00000+0 0  9999", "line2": "2 36131   0.0166  99.1337 0000337 257.3135 310.0782  1.00270531 44761"}}, "geometry": {"type": "Point", "coordinates": [131.84284792410082, 0.013390113267321828]}}, {"type": "Feature", "properties": {"norad_id": 36397, "name": "INTELSAT 16 (IS-16)", "group": "intelsat", "lat": 0.011431638501476814, "lon": 158.34535329609866, "alt_km": 35789.254254403444, "timestamp": "2025-12-21T09:37:22.316157+00:00", "meta": {"OBJECT_NAME": "INTELSAT 16 (IS-16)", "OBJECT_ID": "2010-006A", "EPOCH": "2025-12-21T04:54:20.160000", "MEAN_MOTION": 1.00271302, "ECCENTRICITY": 0.0001826, "INCLINATION": 0.0117, "RA_OF_ASC_NODE": 352.2882, "ARG_OF_PERICENTER": 279.0233, "MEAN_ANOMALY": 176.1095, "EPHEMERIS_TYPE": 0, "CLASSIFICATION_TYPE": "U", "NORAD_CAT_ID": 36397, "ELEMENT_SET_NO": 999, "REV_AT_EPOCH": 5787, "BSTAR": 0, "MEAN_MOTION_DOT": -2.22e-06, "MEAN_MOTION_DDOT": 0}, "tle": {"line1": "1 36397U 10006A   25355.20440000 -.00000222  00000+0  00000+0 0  9990", "line2": "2 36397   0.0117 352.2882 0001826 279.0233 176.1095  1.00271302 57874"}}, "geometry": {"type": "Point", "coordinates": [158.34535329609866, 0.011431638501476814]}}, {"type": "Feature", "properties": {"norad_id": 37185, "name": "XM-5", "group": "intelsat", "lat": -0.006705311502678072, "lon": 119.34908432881431, "alt_km": 35778.61172378938, "timestamp": "2025-12-21T09:37:22.316169+00:00", "meta": {"OBJECT_NAME": "XM-5", "OBJECT_ID": "2010-053A", "EPOCH": "2025-12-20T21:14:35.981088", "MEAN_MOTION": 1.00269291, "ECCENTRICITY": 0.0002244, "INCLINATION": 0.0661, "RA_OF_ASC_NODE": 270.9496, "ARG_OF_PERICENTER": 238.8649, "MEAN_ANOMALY": 143.3591, "EPHEMERIS_TYPE": 0, "CLASSIFICATION_TYPE": "U", "NORAD_CAT_ID": 37185, "ELEMENT_SET_NO": 999, "REV_AT_EPOCH": 5569, "BSTAR": 0, "MEAN_MOTION_DOT": 0, "MEAN_MOTION_DDOT": 0}, "tle": {"line1": "1 37185U 10053A   25354.88513867  .00000000  00000+0  00000+0 0  9996", "line2": "2 37185   0.0661 270.9496 0002244 238.8649 143.3591  1.00269291 55699"}}, "geometry": {"type": "Point", "coordinates": [119.34908432881431, -0.006705311502678072]}}, {"type": "Feature", "properties": {"norad_id": 37238, "name": "INTELSAT 17 (IS-17)", "group": "intelsat", "lat": -0.040421128319101884, "lon": -59.46624670400966, "alt_km": 35774.356245599374, "timestamp": "2025-12-21T09:37:22.316180+00:00", "meta": {"OBJECT_NAME": "INTELSAT 17 (IS-17)", "OBJECT_ID": "2010-065B", "EPOCH": "2025-12-20T23:48:58.695264", "MEAN_MOTION": 1.00271515, "ECCENTRICITY": 0.000282, "INCLINATION": 0.0311, "RA_OF_ASC_NODE": 70.1295, "ARG_OF_PERICENTER": 221.6381, "MEAN_ANOMALY": 221.2687, "EPHEMERIS_TYPE": 0, "CLASSIFICATION_TYPE": "U", "NORAD_CAT_ID": 37238, "ELEMENT_SET_NO": 999, "REV_AT_EPOCH": 5146, "BSTAR": 0, "MEAN_MOTION_DOT": 0, "MEAN_MOTION_DDOT": 0}, "tle": {"line1": "1 37238U 10065B   25354.99234601  .00000000  00000+0  00000+0 0  9996", "line2": "2 37238   0.0311  70.1295 0002820 221.6381 221.2687  1.00271515 51465"}}, "geometry": {"type": "Point", "coordinates": [-59.46624670400966, -0.040421128319101884]}}, {"type": "Feature", "properties": {"norad_id": 37392, "name": "INTELSAT 28 (IS-28)", "group": "intelsat", "lat": 1.1804855292388738, "lon": -157.17738571164364, "alt_km": 35781.36817161942, "timestamp": "2025-12-21T09:37:22.316191+00:00", "meta": {"OBJECT_NAME": "INTELSAT 28 (IS-28)", "OBJECT_ID": "2011-016A", "EPOCH": "2025-12-21T02:46:31.544832", "MEAN_MOTION": 1.00269689, "ECCENTRICITY": 0.0003696, "INCLINATION": 1.3449, "RA_OF_ASC_NODE": 84.9659, "ARG_OF_PERICENTER": 188.6208, "MEAN_ANOMALY": 186.285, "EPHEMERIS_TYPE": 0, "CLASSIFICATION_TYPE": "U", "NORAD_CAT_ID": 37392, "ELEMENT_SET_NO": 999, "REV_AT_EPOCH": 5150, "BSTAR": 0, "MEAN_MOTION_DOT": -2.03e-06, "MEAN_MOTION_DDOT": 0}, "tle": {"line1": "1 37392U 11016A   25355.11564288 -.00000203  00000+0  00000+0 0  9992", "line2": "2 37392   1.3449  84.9659 0003696 188.6208 186.2850  1.00269689 51507"}}, "geometry": {"type": "Point", "coordinates": [-157.17738571164364, 1.1804855292388738]}}]}